[{"OBJECT_NAME":"LEMUR-2-FURIAUS","OBJECT_ID":"2017-042R","EPOCH":"2026-03-09T23:04:27.745536","MEAN_MOTION":15.26272951,"ECCENTRICITY":0.00075374,"INCLINATION":97.3753,"RA_OF_ASC_NODE":248.499,"ARG_OF_PERICENTER":55.8686,"MEAN_ANOMALY":304.3266,"EPHEMERIS_TYPE":0,"CLASSIFICATION_TYPE":"U","NORAD_CAT_ID":42840,"ELEMENT_SET_NO":999,"REV_AT_EPOCH":47305,"BSTAR":0.00099966194,"MEAN_MOTION_DOT":0.00025928,"MEAN_MOTION_DDOT":0},{"OBJECT_NAME":"STARLINK-35867","OBJECT_ID":"2025-278A","EPOCH":"2026-03-09T19:34:56.492832","MEAN_MOTION":15.2759637,"ECCENTRICITY":0.0001499,"INCLINATION":43.0007,"RA_OF_ASC_NODE":114.0738,"ARG_OF_PERICENTER":279.4001,"MEAN_ANOMALY":80.6681,"EPHEMERIS_TYPE":0,"CLASSIFICATION_TYPE":"U","NORAD_CAT_ID":66791,"ELEMENT_SET_NO":999,"REV_AT_EPOCH":1522,"BSTAR":0.0012254482,"MEAN_MOTION_DOT":0.0003363,"MEAN_MOTION_DDOT":0}]
